SL-14 R/B               
1 16496U 86006B   26069.93368369  .00000798  00000+0  82347-4 0  9997
2 16496  82.5235 258.5660 0075057 268.5796  90.6822 14.86816820149399
COSMOS 1743             
1 16719U 86034A   26070.05451854  .00038159  00000+0  49529-3 0  9999
2 16719  82.5297  72.3984 0001516 279.1264  80.9820 15.58655444180469
SL-14 R/B               
1 16792U 86046B   26070.08707251  .00000550  00000+0  60552-4 0  9995
2 16792  82.4783  78.8610 0022058 220.5207 139.4368 14.85591753126612
SL-14 R/B               
1 16882U 86055B   26070.21727883  .00000485  00000+0  53043-4 0  9997
2 16882  82.5199 125.2384 0018042 331.3423  89.8517 14.85644148119598
AJISAI (EGS)            
1 16908U 86061A   26070.30908331 -.00000100  00000+0 -17922-4 0  9994
2 16908  50.0080  88.3678 0011271 291.1709  81.9107 12.44515665468205
SL-14 R/B               
1 17567U 87024B   26070.32195474  .00000527  00000+0  57259-4 0  9992
2 17567  82.5246  91.2292 0016717 254.0347 105.9028 14.86133606 88376
COSMOS 1833             
1 17589U 87027A   26070.13449017 -.00000189  00000+0 -75051-4 0  9999
2 17589  70.9221 322.9827 0024201 212.5110 147.4522 14.13054436 10521
SL-16 R/B               
1 17590U 87027B   26069.96280847  .00000139  00000+0  92841-4 0  9993
2 17590  71.0012 273.8126 0003379 140.0020 220.1353 14.17166007 15525
SL-14 R/B               
1 17912U 87038B   26070.04830908  .00000488  00000+0  53734-4 0  9998
2 17912  82.4999 295.5279 0019786 156.0818 204.1322 14.85370579 79438
COSMOS 1844             
1 17973U 87041A   26070.30955781 -.00000159  00000+0 -57148-4 0  9995
2 17973  70.9000  30.7579 0030107  15.3578 344.8450 14.14551754  3813
SL-14 R/B               
1 18153U 87055B   26070.22704907  .00000648  00000+0  71783-4 0  9996
2 18153  82.5030 347.5829 0021036  12.7804 347.3941 14.85631545 70167
COSMOS 1867             
1 18187U 87060A   26070.04808683 -.00000020  00000+0  30081-4 0  9996
2 18187  65.0111 302.9016 0014498 278.7442  81.2000 14.31503269 20133
SL-14 R/B               
1 18749U 88001B   26070.28982433  .00000707  00000+0  78886-4 0  9994
2 18749  82.5155 193.8554 0016926 230.0391 129.9340 14.85530107 42260
COSMOS 1933             
1 18958U 88020A   26069.91073332  .00005683  00000+0  27811-3 0  9993
2 18958  82.5101 249.7032 0004003 176.6218 183.5044 15.17996112 50412
SL-3 R/B                
1 19046U 88032B   26070.24675954  .00006074  00000+0  28361-3 0  9997
2 19046  97.5196  53.4922 0024536 225.7331 134.1891 15.19930295 52342
SL-16 R/B               
1 19120U 88039B   26070.31909738  .00000037  00000+0  40439-4 0  9999
2 19120  71.0136  65.1018 0022867 331.9763  28.0129 14.19615606958611
COSMOS 1953             
1 19210U 88050A   26070.32769398  .00009348  00000+0  33454-3 0  9991
2 19210  82.5102 156.5999 0012577 117.4744 242.7776 15.28559134 38039
