[{"OBJECT_NAME":"SL-14 R/B","OBJECT_ID":"1986-006B","EPOCH":"2026-03-10T22:24:30.270816","MEAN_MOTION":14.8681682,"ECCENTRICITY":0.0075057,"INCLINATION":82.5235,"RA_OF_ASC_NODE":258.566,"ARG_OF_PERICENTER":268.5796,"MEAN_ANOMALY":90.6822,"EPHEMERIS_TYPE":0,"CLASSIFICATION_TYPE":"U","NORAD_CAT_ID":16496,"ELEMENT_SET_NO":999,"REV_AT_EPOCH":14939,"BSTAR":8.2347e-5,"MEAN_MOTION_DOT":7.98e-6,"MEAN_MOTION_DDOT":0},{"OBJECT_NAME":"COSMOS 1743","OBJECT_ID":"1986-034A","EPOCH":"2026-03-11T01:18:30.401856","MEAN_MOTION":15.58655444,"ECCENTRICITY":0.00015161,"INCLINATION":82.5297,"RA_OF_ASC_NODE":72.3984,"ARG_OF_PERICENTER":279.1264,"MEAN_ANOMALY":80.982,"EPHEMERIS_TYPE":0,"CLASSIFICATION_TYPE":"U","NORAD_CAT_ID":16719,"ELEMENT_SET_NO":999,"REV_AT_EPOCH":18046,"BSTAR":0.00049528831,"MEAN_MOTION_DOT":0.00038159,"MEAN_MOTION_DDOT":0},{"OBJECT_NAME":"SL-14 R/B","OBJECT_ID":"1986-046B","EPOCH":"2026-03-11T02:05:23.064864","MEAN_MOTION":14.85591753,"ECCENTRICITY":0.00220582,"INCLINATION":82.4783,"RA_OF_ASC_NODE":78.861,"ARG_OF_PERICENTER":220.5207,"MEAN_ANOMALY":139.4368,"EPHEMERIS_TYPE":0,"CLASSIFICATION_TYPE":"U","NORAD_CAT_ID":16792,"ELEMENT_SET_NO":999,"REV_AT_EPOCH":12661,"BSTAR":6.0552236e-5,"MEAN_MOTION_DOT":5.5e-6,"MEAN_MOTION_DDOT":0},{"OBJECT_NAME":"SL-14 R/B","OBJECT_ID":"1986-055B","EPOCH":"2026-03-11T05:12:52.890912","MEAN_MOTION":14.85644148,"ECCENTRICITY":0.00180429,"INCLINATION":82.5199,"RA_OF_ASC_NODE":125.2384,"ARG_OF_PERICENTER":331.3423,"MEAN_ANOMALY":89.8517,"EPHEMERIS_TYPE":0,"CLASSIFICATION_TYPE":"U","NORAD_CAT_ID":16882,"ELEMENT_SET_NO":999,"REV_AT_EPOCH":11959,"BSTAR":5.3043158e-5,"MEAN_MOTION_DOT":4.85e-6,"MEAN_MOTION_DDOT":0},{"OBJECT_NAME":"AJISAI (EGS)","OBJECT_ID":"1986-061A","EPOCH":"2026-03-11T07:25:04.797984","MEAN_MOTION":12.44515665,"ECCENTRICITY":0.00112716,"INCLINATION":50.008,"RA_OF_ASC_NODE":88.3678,"ARG_OF_PERICENTER":291.1709,"MEAN_ANOMALY":81.9107,"EPHEMERIS_TYPE":0,"CLASSIFICATION_TYPE":"U","NORAD_CAT_ID":16908,"ELEMENT_SET_NO":999,"REV_AT_EPOCH":46820,"BSTAR":-1.7922273e-5,"MEAN_MOTION_DOT":-1.0e-6,"MEAN_MOTION_DDOT":0},{"OBJECT_NAME":"SL-14 R/B","OBJECT_ID":"1987-024B","EPOCH":"2026-03-11T07:43:36.889536","MEAN_MOTION":14.86133606,"ECCENTRICITY":0.00167172,"INCLINATION":82.5246,"RA_OF_ASC_NODE":91.2292,"ARG_OF_PERICENTER":254.0347,"MEAN_ANOMALY":105.9028,"EPHEMERIS_TYPE":0,"CLASSIFICATION_TYPE":"U","NORAD_CAT_ID":17567,"ELEMENT_SET_NO":999,"REV_AT_EPOCH":8837,"BSTAR":5.7258748e-5,"MEAN_MOTION_DOT":5.27e-6,"MEAN_MOTION_DDOT":0},{"OBJECT_NAME":"COSMOS 1833","OBJECT_ID":"1987-027A","EPOCH":"2026-03-11T03:13:39.950688","MEAN_MOTION":14.13054436,"ECCENTRICITY":0.00242011,"INCLINATION":70.9221,"RA_OF_ASC_NODE":322.9827,"ARG_OF_PERICENTER":212.511,"MEAN_ANOMALY":147.4522,"EPHEMERIS_TYPE":0,"CLASSIFICATION_TYPE":"U","NORAD_CAT_ID":17589,"ELEMENT_SET_NO":999,"REV_AT_EPOCH":1052,"BSTAR":-7.5051122e-5,"MEAN_MOTION_DOT":-1.89e-6,"MEAN_MOTION_DDOT":0},{"OBJECT_NAME":"SL-16 R/B","OBJECT_ID":"1987-027B","EPOCH":"2026-03-10T23:06:26.651808","MEAN_MOTION":14.17166007,"ECCENTRICITY":0.0003379,"INCLINATION":71.0012,"RA_OF_ASC_NODE":273.8126,"ARG_OF_PERICENTER":140.002,"MEAN_ANOMALY":220.1353,"EPHEMERIS_TYPE":0,"CLASSIFICATION_TYPE":"U","NORAD_CAT_ID":17590,"ELEMENT_SET_NO":999,"REV_AT_EPOCH":1552,"BSTAR":9.2841e-5,"MEAN_MOTION_DOT":1.39e-6,"MEAN_MOTION_DDOT":0},{"OBJECT_NAME":"SL-14 R/B","OBJECT_ID":"1987-038B","EPOCH":"2026-03-11T01:09:33.904512","MEAN_MOTION":14.85370579,"ECCENTRICITY":0.00197868,"INCLINATION":82.4999,"RA_OF_ASC_NODE":295.5279,"ARG_OF_PERICENTER":156.0818,"MEAN_ANOMALY":204.1322,"EPHEMERIS_TYPE":0,"CLASSIFICATION_TYPE":"U","NORAD_CAT_ID":17912,"ELEMENT_SET_NO":999,"REV_AT_EPOCH":7943,"BSTAR":5.3733938e-5,"MEAN_MOTION_DOT":4.88e-6,"MEAN_MOTION_DDOT":0},{"OBJECT_NAME":"COSMOS 1844","OBJECT_ID":"1987-041A","EPOCH":"2026-03-11T07:25:45.794784","MEAN_MOTION":14.14551754,"ECCENTRICITY":0.0030107,"INCLINATION":70.9,"RA_OF_ASC_NODE":30.7579,"ARG_OF_PERICENTER":15.3578,"MEAN_ANOMALY":344.845,"EPHEMERIS_TYPE":0,"CLASSIFICATION_TYPE":"U","NORAD_CAT_ID":17973,"ELEMENT_SET_NO":999,"REV_AT_EPOCH":381,"BSTAR":-5.7148378e-5,"MEAN_MOTION_DOT":-1.59e-6,"MEAN_MOTION_DDOT":0},{"OBJECT_NAME":"SL-14 R/B","OBJECT_ID":"1987-055B","EPOCH":"2026-03-11T05:26:57.039648","MEAN_MOTION":14.85631545,"ECCENTRICITY":0.00210364,"INCLINATION":82.503,"RA_OF_ASC_NODE":347.5829,"ARG_OF_PERICENTER":12.7804,"MEAN_ANOMALY":347.3941,"EPHEMERIS_TYPE":0,"CLASSIFICATION_TYPE":"U","NORAD_CAT_ID":18153,"ELEMENT_SET_NO":999,"REV_AT_EPOCH":7016,"BSTAR":7.1783124e-5,"MEAN_MOTION_DOT":6.48e-6,"MEAN_MOTION_DDOT":0},{"OBJECT_NAME":"COSMOS 1867","OBJECT_ID":"1987-060A","EPOCH":"2026-03-11T01:09:14.702112","MEAN_MOTION":14.31503269,"ECCENTRICITY":0.00144987,"INCLINATION":65.0111,"RA_OF_ASC_NODE":302.9016,"ARG_OF_PERICENTER":278.7442,"MEAN_ANOMALY":81.2,"EPHEMERIS_TYPE":0,"CLASSIFICATION_TYPE":"U","NORAD_CAT_ID":18187,"ELEMENT_SET_NO":999,"REV_AT_EPOCH":2013,"BSTAR":3.0080651e-5,"MEAN_MOTION_DOT":-2.0e-7,"MEAN_MOTION_DDOT":0},{"OBJECT_NAME":"SL-14 R/B","OBJECT_ID":"1988-001B","EPOCH":"2026-03-11T06:57:20.822112","MEAN_MOTION":14.85530107,"ECCENTRICITY":0.00169261,"INCLINATION":82.5155,"RA_OF_ASC_NODE":193.8554,"ARG_OF_PERICENTER":230.0391,"MEAN_ANOMALY":129.934,"EPHEMERIS_TYPE":0,"CLASSIFICATION_TYPE":"U","NORAD_CAT_ID":18749,"ELEMENT_SET_NO":999,"REV_AT_EPOCH":4226,"BSTAR":7.888578e-5,"MEAN_MOTION_DOT":7.07e-6,"MEAN_MOTION_DDOT":0},{"OBJECT_NAME":"COSMOS 1933","OBJECT_ID":"1988-020A","EPOCH":"2026-03-10T21:51:27.358848","MEAN_MOTION":15.17996112,"ECCENTRICITY":0.0004003,"INCLINATION":82.5101,"RA_OF_ASC_NODE":249.7032,"ARG_OF_PERICENTER":176.6218,"MEAN_ANOMALY":183.5044,"EPHEMERIS_TYPE":0,"CLASSIFICATION_TYPE":"U","NORAD_CAT_ID":18958,"ELEMENT_SET_NO":999,"REV_AT_EPOCH":5041,"BSTAR":0.00027811,"MEAN_MOTION_DOT":5.683e-5,"MEAN_MOTION_DDOT":0},{"OBJECT_NAME":"SL-3 R/B","OBJECT_ID":"1988-032B","EPOCH":"2026-03-11T05:55:20.024256","MEAN_MOTION":15.19930295,"ECCENTRICITY":0.00245364,"INCLINATION":97.5196,"RA_OF_ASC_NODE":53.4922,"ARG_OF_PERICENTER":225.7331,"MEAN_ANOMALY":134.1891,"EPHEMERIS_TYPE":0,"CLASSIFICATION_TYPE":"U","NORAD_CAT_ID":19046,"ELEMENT_SET_NO":999,"REV_AT_EPOCH":5234,"BSTAR":0.00028361224,"MEAN_MOTION_DOT":6.074e-5,"MEAN_MOTION_DDOT":0},{"OBJECT_NAME":"SL-16 R/B","OBJECT_ID":"1988-039B","EPOCH":"2026-03-11T07:39:30.013632","MEAN_MOTION":14.19615606,"ECCENTRICITY":0.00228679,"INCLINATION":71.0136,"RA_OF_ASC_NODE":65.1018,"ARG_OF_PERICENTER":331.9763,"MEAN_ANOMALY":28.0129,"EPHEMERIS_TYPE":0,"CLASSIFICATION_TYPE":"U","NORAD_CAT_ID":19120,"ELEMENT_SET_NO":999,"REV_AT_EPOCH":95861,"BSTAR":4.0439022e-5,"MEAN_MOTION_DOT":3.7e-7,"MEAN_MOTION_DDOT":0},{"OBJECT_NAME":"COSMOS 1953","OBJECT_ID":"1988-050A","EPOCH":"2026-03-11T07:51:52.759872","MEAN_MOTION":15.28559134,"ECCENTRICITY":0.00125775,"INCLINATION":82.5102,"RA_OF_ASC_NODE":156.5999,"ARG_OF_PERICENTER":117.4744,"MEAN_ANOMALY":242.7776,"EPHEMERIS_TYPE":0,"CLASSIFICATION_TYPE":"U","NORAD_CAT_ID":19210,"ELEMENT_SET_NO":999,"REV_AT_EPOCH":3803,"BSTAR":0.00033454482,"MEAN_MOTION_DOT":9.348e-5,"MEAN_MOTION_DDOT":0}]
